STARLINK-32032          
1 60077U 24113U   25263.73833538 -.00000717  00000+0 -12108-4 0  9991
2 60077  53.1612  68.2376 0000985  88.2389 271.8725 15.30187192 71212
STARLINK-31441          
1 60091U 24117A   25263.84532014  .00000482  00000+0  28381-4 0  9995
2 60091  53.1597 105.9553 0001022  90.3870 269.7248 15.30197225 70884
STARLINK-32044          
1 60092U 24117B   25263.82527115  .00000060  00000+0  14147-4 0  9997
2 60092  53.1596 105.8292 0000983  93.8730 266.2383 15.30192072 70888
STARLINK-31239          
1 60093U 24117C   25263.87803448 -.00000168  00000+0  64467-5 0  9990
2 60093  53.1593 106.1615 0001038  97.1664 262.9455 15.30194124 70887
STARLINK-32007          
1 60094U 24117D   25263.86431381  .00000563  00000+0  31142-4 0  9994
2 60094  53.1599 106.0763 0001120  93.7636 266.3492 15.30196434 70885
STARLINK-32028          
1 60095U 24117E   25263.85481751  .00000316  00000+0  22801-4 0  9998
2 60095  53.1598 106.0167 0001011  90.5646 269.5471 15.30195501 70884
STARLINK-32016          
1 60096U 24117F   25263.87381608  .00000381  00000+0  24994-4 0  9998
2 60096  53.1592 106.1341 0001049 100.5141 259.5978 15.30193182 70881
STARLINK-32003          
1 60097U 24117G   25263.84109790 -.00000380  00000+0 -70264-6 0  9990
2 60097  53.1600 105.9282 0001166  83.9178 276.1956 15.30196641 70881
STARLINK-32026          
1 60098U 24117H   25263.85059781 -.00000233  00000+0  42442-5 0  9998
2 60098  53.1598 105.9887 0000993  78.3458 281.7655 15.30194753 70885
STARLINK-31732          
1 60099U 24117J   25263.88319784 -.00000333  00000+0  87683-6 0  9992
2 60099  53.1597 105.4774 0001087  93.2371 266.8754 15.30190301 70890
STARLINK-31996          
1 60100U 24117K   25263.83160121 -.00000026  00000+0  11254-4 0  9997
2 60100  53.1599 105.8672 0001111  86.6343 273.4785 15.30190633 70884
STARLINK-31999          
1 60101U 24117L   25263.87697697 -.00000054  00000+0  10291-4 0  9996
2 60101  53.1595 106.1529 0001105  97.5039 262.6087 15.30196282 70883
STARLINK-31954          
1 60102U 24117M   25263.80532897  .00001930  00000+0  77301-4 0  9998
2 60102  53.1589 106.4169 0001264  99.2948 260.8195 15.30186510 70876
STARLINK-32013          
1 60103U 24117N   25263.86748100 -.00000401  00000+0 -14114-5 0  9999
2 60103  53.1591 106.0937 0001088  96.4439 263.6686 15.30194428 70881
STARLINK-32009          
1 60104U 24117P   25263.88013995  .00000064  00000+0  14270-4 0  9994
2 60104  53.1596 106.1469 0001137  95.5090 264.6041 15.30193375 70882
STARLINK-32018          
1 60105U 24117Q   25263.85798269 -.00000309  00000+0  16951-5 0  9998
2 60105  53.1593 106.0330 0000942  81.0520 279.0587 15.30196888 70884
