[{"OBJECT_NAME":"STARLINK-32032","OBJECT_ID":"2024-113U","EPOCH":"2025-09-20T17:43:12.176832","MEAN_MOTION":15.30187192,"ECCENTRICITY":9.85e-5,"INCLINATION":53.1612,"RA_OF_ASC_NODE":68.2376,"ARG_OF_PERICENTER":88.2389,"MEAN_ANOMALY":271.8725,"EPHEMERIS_TYPE":0,"CLASSIFICATION_TYPE":"U","NORAD_CAT_ID":60077,"ELEMENT_SET_NO":999,"REV_AT_EPOCH":7121,"BSTAR":-1.210833e-5,"MEAN_MOTION_DOT":-7.17e-6,"MEAN_MOTION_DDOT":0},{"OBJECT_NAME":"STARLINK-31441","OBJECT_ID":"2024-117A","EPOCH":"2025-09-20T20:17:15.660096","MEAN_MOTION":15.30197225,"ECCENTRICITY":0.00010223,"INCLINATION":53.1597,"RA_OF_ASC_NODE":105.9553,"ARG_OF_PERICENTER":90.387,"MEAN_ANOMALY":269.7248,"EPHEMERIS_TYPE":0,"CLASSIFICATION_TYPE":"U","NORAD_CAT_ID":60091,"ELEMENT_SET_NO":999,"REV_AT_EPOCH":7088,"BSTAR":2.8381054e-5,"MEAN_MOTION_DOT":4.82e-6,"MEAN_MOTION_DDOT":0},{"OBJECT_NAME":"STARLINK-32044","OBJECT_ID":"2024-117B","EPOCH":"2025-09-20T19:48:23.427360","MEAN_MOTION":15.30192072,"ECCENTRICITY":9.83e-5,"INCLINATION":53.1596,"RA_OF_ASC_NODE":105.8292,"ARG_OF_PERICENTER":93.873,"MEAN_ANOMALY":266.2383,"EPHEMERIS_TYPE":0,"CLASSIFICATION_TYPE":"U","NORAD_CAT_ID":60092,"ELEMENT_SET_NO":999,"REV_AT_EPOCH":7088,"BSTAR":1.4147435e-5,"MEAN_MOTION_DOT":6.0e-7,"MEAN_MOTION_DDOT":0},{"OBJECT_NAME":"STARLINK-31239","OBJECT_ID":"2024-117C","EPOCH":"2025-09-20T21:04:22.179072","MEAN_MOTION":15.30194124,"ECCENTRICITY":0.0001038,"INCLINATION":53.1593,"RA_OF_ASC_NODE":106.1615,"ARG_OF_PERICENTER":97.1664,"MEAN_ANOMALY":262.9455,"EPHEMERIS_TYPE":0,"CLASSIFICATION_TYPE":"U","NORAD_CAT_ID":60093,"ELEMENT_SET_NO":999,"REV_AT_EPOCH":7088,"BSTAR":6.446685e-6,"MEAN_MOTION_DOT":-1.68e-6,"MEAN_MOTION_DDOT":0},{"OBJECT_NAME":"STARLINK-32007","OBJECT_ID":"2024-117D","EPOCH":"2025-09-20T20:44:36.713184","MEAN_MOTION":15.30196434,"ECCENTRICITY":0.000112,"INCLINATION":53.1599,"RA_OF_ASC_NODE":106.0763,"ARG_OF_PERICENTER":93.7636,"MEAN_ANOMALY":266.3492,"EPHEMERIS_TYPE":0,"CLASSIFICATION_TYPE":"U","NORAD_CAT_ID":60094,"ELEMENT_SET_NO":999,"REV_AT_EPOCH":7088,"BSTAR":3.1142285e-5,"MEAN_MOTION_DOT":5.63e-6,"MEAN_MOTION_DDOT":0},{"OBJECT_NAME":"STARLINK-32028","OBJECT_ID":"2024-117E","EPOCH":"2025-09-20T20:30:56.232864","MEAN_MOTION":15.30195501,"ECCENTRICITY":0.00010116,"INCLINATION":53.1598,"RA_OF_ASC_NODE":106.0167,"ARG_OF_PERICENTER":90.5646,"MEAN_ANOMALY":269.5471,"EPHEMERIS_TYPE":0,"CLASSIFICATION_TYPE":"U","NORAD_CAT_ID":60095,"ELEMENT_SET_NO":999,"REV_AT_EPOCH":7088,"BSTAR":2.2800672e-5,"MEAN_MOTION_DOT":3.16e-6,"MEAN_MOTION_DDOT":0},{"OBJECT_NAME":"STARLINK-32016","OBJECT_ID":"2024-117F","EPOCH":"2025-09-20T20:58:17.709312","MEAN_MOTION":15.30193182,"ECCENTRICITY":0.00010494,"INCLINATION":53.1592,"RA_OF_ASC_NODE":106.1341,"ARG_OF_PERICENTER":100.5141,"MEAN_ANOMALY":259.5978,"EPHEMERIS_TYPE":0,"CLASSIFICATION_TYPE":"U","NORAD_CAT_ID":60096,"ELEMENT_SET_NO":999,"REV_AT_EPOCH":7088,"BSTAR":2.4993516e-5,"MEAN_MOTION_DOT":3.81e-6,"MEAN_MOTION_DDOT":0},{"OBJECT_NAME":"STARLINK-32003","OBJECT_ID":"2024-117G","EPOCH":"2025-09-20T20:11:10.858560","MEAN_MOTION":15.30196641,"ECCENTRICITY":0.00011669,"INCLINATION":53.16,"RA_OF_ASC_NODE":105.9282,"ARG_OF_PERICENTER":83.9178,"MEAN_ANOMALY":276.1956,"EPHEMERIS_TYPE":0,"CLASSIFICATION_TYPE":"U","NORAD_CAT_ID":60097,"ELEMENT_SET_NO":999,"REV_AT_EPOCH":7088,"BSTAR":-7.02644e-7,"MEAN_MOTION_DOT":-3.8e-6,"MEAN_MOTION_DDOT":0},{"OBJECT_NAME":"STARLINK-32026","OBJECT_ID":"2024-117H","EPOCH":"2025-09-20T20:24:51.650784","MEAN_MOTION":15.30194753,"ECCENTRICITY":9.937e-5,"INCLINATION":53.1598,"RA_OF_ASC_NODE":105.9887,"ARG_OF_PERICENTER":78.3458,"MEAN_ANOMALY":281.7655,"EPHEMERIS_TYPE":0,"CLASSIFICATION_TYPE":"U","NORAD_CAT_ID":60098,"ELEMENT_SET_NO":999,"REV_AT_EPOCH":7088,"BSTAR":4.244197e-6,"MEAN_MOTION_DOT":-2.33e-6,"MEAN_MOTION_DDOT":0},{"OBJECT_NAME":"STARLINK-31732","OBJECT_ID":"2024-117J","EPOCH":"2025-09-20T21:11:48.293376","MEAN_MOTION":15.30190301,"ECCENTRICITY":0.00010875,"INCLINATION":53.1597,"RA_OF_ASC_NODE":105.4774,"ARG_OF_PERICENTER":93.2371,"MEAN_ANOMALY":266.8754,"EPHEMERIS_TYPE":0,"CLASSIFICATION_TYPE":"U","NORAD_CAT_ID":60099,"ELEMENT_SET_NO":999,"REV_AT_EPOCH":7089,"BSTAR":8.76825e-7,"MEAN_MOTION_DOT":-3.33e-6,"MEAN_MOTION_DDOT":0},{"OBJECT_NAME":"STARLINK-31996","OBJECT_ID":"2024-117K","EPOCH":"2025-09-20T19:57:30.344544","MEAN_MOTION":15.30190633,"ECCENTRICITY":0.00011112,"INCLINATION":53.1599,"RA_OF_ASC_NODE":105.8672,"ARG_OF_PERICENTER":86.6343,"MEAN_ANOMALY":273.4785,"EPHEMERIS_TYPE":0,"CLASSIFICATION_TYPE":"U","NORAD_CAT_ID":60100,"ELEMENT_SET_NO":999,"REV_AT_EPOCH":7088,"BSTAR":1.1253946e-5,"MEAN_MOTION_DOT":-2.6e-7,"MEAN_MOTION_DDOT":0},{"OBJECT_NAME":"STARLINK-31999","OBJECT_ID":"2024-117L","EPOCH":"2025-09-20T21:02:50.810208","MEAN_MOTION":15.30196282,"ECCENTRICITY":0.00011052,"INCLINATION":53.1595,"RA_OF_ASC_NODE":106.1529,"ARG_OF_PERICENTER":97.5039,"MEAN_ANOMALY":262.6087,"EPHEMERIS_TYPE":0,"CLASSIFICATION_TYPE":"U","NORAD_CAT_ID":60101,"ELEMENT_SET_NO":999,"REV_AT_EPOCH":7088,"BSTAR":1.0291253e-5,"MEAN_MOTION_DOT":-5.4e-7,"MEAN_MOTION_DDOT":0},{"OBJECT_NAME":"STARLINK-31954","OBJECT_ID":"2024-117M","EPOCH":"2025-09-20T19:19:40.423008","MEAN_MOTION":15.3018651,"ECCENTRICITY":0.00012644,"INCLINATION":53.1589,"RA_OF_ASC_NODE":106.4169,"ARG_OF_PERICENTER":99.2948,"MEAN_ANOMALY":260.8195,"EPHEMERIS_TYPE":0,"CLASSIFICATION_TYPE":"U","NORAD_CAT_ID":60102,"ELEMENT_SET_NO":999,"REV_AT_EPOCH":7087,"BSTAR":7.7301289e-5,"MEAN_MOTION_DOT":1.93e-5,"MEAN_MOTION_DDOT":0},{"OBJECT_NAME":"STARLINK-32013","OBJECT_ID":"2024-117N","EPOCH":"2025-09-20T20:49:10.358400","MEAN_MOTION":15.30194428,"ECCENTRICITY":0.00010883,"INCLINATION":53.1591,"RA_OF_ASC_NODE":106.0937,"ARG_OF_PERICENTER":96.4439,"MEAN_ANOMALY":263.6686,"EPHEMERIS_TYPE":0,"CLASSIFICATION_TYPE":"U","NORAD_CAT_ID":60103,"ELEMENT_SET_NO":999,"REV_AT_EPOCH":7088,"BSTAR":-1.411356e-6,"MEAN_MOTION_DOT":-4.01e-6,"MEAN_MOTION_DDOT":0},{"OBJECT_NAME":"STARLINK-32009","OBJECT_ID":"2024-117P","EPOCH":"2025-09-20T21:07:24.091680","MEAN_MOTION":15.30193375,"ECCENTRICITY":0.00011375,"INCLINATION":53.1596,"RA_OF_ASC_NODE":106.1469,"ARG_OF_PERICENTER":95.509,"MEAN_ANOMALY":264.6041,"EPHEMERIS_TYPE":0,"CLASSIFICATION_TYPE":"U","NORAD_CAT_ID":60104,"ELEMENT_SET_NO":999,"REV_AT_EPOCH":7088,"BSTAR":1.4270291e-5,"MEAN_MOTION_DOT":6.4e-7,"MEAN_MOTION_DDOT":0},{"OBJECT_NAME":"STARLINK-32018","OBJECT_ID":"2024-117Q","EPOCH":"2025-09-20T20:35:29.704416","MEAN_MOTION":15.30196888,"ECCENTRICITY":9.427e-5,"INCLINATION":53.1593,"RA_OF_ASC_NODE":106.033,"ARG_OF_PERICENTER":81.052,"MEAN_ANOMALY":279.0587,"EPHEMERIS_TYPE":0,"CLASSIFICATION_TYPE":"U","NORAD_CAT_ID":60105,"ELEMENT_SET_NO":999,"REV_AT_EPOCH":7088,"BSTAR":1.695053e-6,"MEAN_MOTION_DOT":-3.09e-6,"MEAN_MOTION_DDOT":0}]
